ONEWEB-0258             
1 48976U 21060K   24179.56514410 -.00000054  00000+0 -17544-3 0  9996
2 48976  87.9099  12.0562 0001806  86.4629 273.6708 13.16594817146182
ONEWEB-0259             
1 48977U 21060L   24179.10282581 -.00000015  00000+0 -73640-4 0  9995
2 48977  87.9099  12.1328 0001776  81.2535 278.8797 13.16595213146163
ONEWEB-0260             
1 48978U 21060M   24179.09412631 -.00000039  00000+0 -13522-3 0  9993
2 48978  87.9100  12.1635 0002367  97.6200 262.5200 13.16594369146132
ONEWEB-0261             
1 48979U 21060N   24179.06324323  .00000077  00000+0  16753-3 0  9990
2 48979  87.9102  12.1637 0002391  79.7953 280.3448 13.16595166146206
ONEWEB-0262             
1 48980U 21060P   24179.50022064  .00000028  00000+0  40114-4 0  9993
2 48980  87.9100  12.0406 0001857  72.6067 287.5267 13.16592710146225
ONEWEB-0263             
1 48981U 21060Q   24179.53188932  .00000090  00000+0  20079-3 0  9990
2 48981  87.9104  12.0508 0002128  74.2599 285.8766 13.16595366146194
ONEWEB-0264             
1 48982U 21060R   24179.56910297 -.00000030  00000+0 -11146-3 0  9992
2 48982  87.9101  12.0548 0001912  86.6925 273.4425 13.16594771146190
ONEWEB-0266             
1 48984U 21060T   24179.51447184  .00000089  00000+0  20046-3 0  9990
2 48984  87.9098  12.0430 0001726  87.3026 272.8303 13.16595491146187
